STARLINK-2675           
1 48470U 21040AU  23116.96610221  .00023335  00000+0  15795-2 0  9994
2 48470  53.0542 215.0217 0002191 103.7910 256.3323 15.06418280109858
STARLINK-2684           
1 48471U 21040AV  23116.49524610  .00025867  00000+0  17495-2 0  9990
2 48471  53.0545 217.1473 0001627  95.1764 264.9411 15.06390356108500
STARLINK-2722           
1 48472U 21040AW  23116.74219411  .00024077  00000+0  16296-2 0  9999
2 48472  53.0528 216.0360 0001422  88.9946 271.1206 15.06403531108535
STARLINK-2658           
1 48473U 21040AX  23116.64638364  .00019347  00000+0  13147-2 0  9997
2 48473  53.0520 216.4697 0001510  84.2222 275.8939 15.06385524108523
STARLINK-2697           
1 48474U 21040AY  23116.67955184  .00034516  00000+0  23246-2 0  9999
2 48474  53.0525 216.3162 0001855  94.2376 265.8825 15.06402648108528
STARLINK-2619           
1 48475U 21040AZ  23116.98180068  .00012654  00000+0  86679-3 0  9994
2 48475  53.0534 214.9623 0001992  92.7191 267.4026 15.06404588109858
STARLINK-2723           
1 48476U 21040BA  23116.47313463  .00044363  00000+0  29795-2 0  9993
2 48476  53.0569 217.2435 0001166  83.1754 276.9368 15.06387691108494
STARLINK-2728           
1 48478U 21040BC  23116.65744525  .00025147  00000+0  17030-2 0  9990
2 48478  53.0538 216.4187 0001812 103.8916 256.2274 15.06357957108528
STARLINK-2755           
1 48479U 21040BD  23116.98549022  .00016185  00000+0  11033-2 0  9991
2 48479  53.0556 214.9453 0001946  85.9546 274.1665 15.06389246109851
STARLINK-2690           
1 48480U 21040BE  23116.99836971  .00012725  00000+0  87117-3 0  9999
2 48480  53.0539 224.8757 0001762  95.9854 264.1336 15.06419803109712
STARLINK-2706           
1 48481U 21040BF  23116.77449422  .00030074  00000+0  20273-2 0  9993
2 48481  53.0526 226.1696 0002200  97.3023 262.8216 15.06435302108395
STARLINK-2525           
1 48482U 21040BG  23117.00666758  .00024295  00000+0  16432-2 0  9994
2 48482  53.0532 224.8473 0001220  87.8217 272.2912 15.06424800108884
STARLINK-2531           
1 48483U 21040BH  23116.73760089  .00039084  00000+0  26273-2 0  9992
2 48483  53.0544 226.0568 0001612  87.8904 272.2269 15.06413493108392
STARLINK-2696           
1 48484U 21040BJ  23117.01406165 -.00002289  00000+0 -13487-3 0  9990
2 48484  53.0551 225.1706 0001244  90.3096 269.8035 15.06396827109718
STARLINK-2500           
1 48485U 21040BK  23117.01033424  .00028714  00000+0  19376-2 0  9996
2 48485  53.0523 224.8297 0001274  91.2813 268.8322 15.06421500109714
STARLINK-2496           
1 48486U 21040BL  23116.81406774  .00030365  00000+0  20490-2 0  9990
2 48486  53.0526 225.7023 0001415  86.3002 273.8149 15.06393845108405
STARLINK-2494           
1 48487U 21040BM  23116.68601191  .00046348  00000+0  31094-2 0  9996
2 48487  53.0535 226.2925 0001239 129.1015 231.0084 15.06407360108397
STARLINK-2063           
1 48553U 21041A   23116.79564061  .00011080  00000+0  76212-3 0  9994
2 48553  53.0541 155.7990 0001636  88.0042 272.1134 15.06373695107260
STARLINK-2139           
1 48554U 21041B   23116.80301445  .00008899  00000+0  61614-3 0  9996
2 48554  53.0523 155.7633 0001546  73.7821 286.3338 15.06365590107269
STARLINK-2145           
1 48555U 21041C   23116.63253128  .00010295  00000+0  70975-3 0  9995
2 48555  53.0518 166.5291 0001754  85.1802 274.9388 15.06362325107093
STARLINK-2151           
1 48556U 21041D   23116.62148985  .00014960  00000+0  10218-2 0  9995
2 48556  53.0509 166.5801 0001452  66.2083 293.9058 15.06373876107095
STARLINK-2155           
1 48557U 21041E   23116.82512517 -.00002037  00000+0 -11796-3 0  9991
2 48557  53.0523 155.6653 0001258  87.3631 272.7502 15.06386006107710
STARLINK-2166           
1 48558U 21041F   23117.15318496  .00008940  00000+0  61870-3 0  9994
2 48558  53.0513 154.1900 0001364  81.7857 278.3286 15.06373885107717
STARLINK-2167           
1 48559U 21041G   23116.52560480  .00010297  00000+0  70933-3 0  9995
2 48559  53.0516 157.0089 0001327 100.9677 259.1461 15.06391268107216
STARLINK-2186           
1 48561U 21041J   23116.73947031  .00007311  00000+0  50957-3 0  9999
2 48561  53.0532 126.3293 0001565  81.9402 278.1765 15.06373914107677
STARLINK-2187           
1 48562U 21041K   23116.79934169  .00014379  00000+0  98304-3 0  9994
2 48562  53.0538 155.7840 0001402  85.7357 274.3792 15.06369215107261
STARLINK-2188           
1 48563U 21041L   23116.61872196  .00009304  00000+0  64335-3 0  9996
2 48563  53.0522 156.5905 0000976  71.3541 288.7553 15.06358913107231
STARLINK-2190           
1 48564U 21041M   23116.81039937  .00009991  00000+0  68915-3 0  9997
2 48564  53.0519 155.7303 0001400  80.8155 279.2992 15.06372588107269
STARLINK-2191           
1 48565U 21041N   23116.80576732  .00009121  00000+0  63081-3 0  9990
2 48565  53.0537 155.7395 0001641  94.6735 265.4442 15.06376536107719
STARLINK-2214           
1 48566U 21041P   23117.15963933  .00013265  00000+0  90811-3 0  9998
2 48566  53.0525 164.1315 0001532  78.3217 281.7944 15.06383814107575
STARLINK-2215           
1 48567U 21041Q   23116.57723502  .00017552  00000+0  11946-2 0  9994
2 48567  53.0525 166.7713 0001278  86.2002 273.9133 15.06390889107082
STARLINK-2217           
1 48568U 21041R   23116.58924328  .00011848  00000+0  81371-3 0  9997
2 48568  53.0517 156.7237 0001640  67.3503 292.7659 15.06365398107228
STARLINK-2219           
1 48569U 21041S   23116.81407701  .00009871  00000+0  68134-3 0  9990
2 48569  53.0522 155.7139 0001426  69.7570 290.3572 15.06362512107264
STARLINK-2220           
1 48570U 21041T   23116.86844629  .00017560  00000+0  11952-2 0  9990
2 48570  53.0524 165.4659 0001420  66.9456 293.1683 15.06388507107524
STARLINK-2221           
1 48571U 21041U   23117.14119901  .00014321  00000+0  97809-3 0  9999
2 48571  53.0526 164.2426 0001527  73.8726 286.2431 15.06411175107578
STARLINK-2222           
1 48572U 21041V   23116.87214148  .00017010  00000+0  11588-2 0  9995
2 48572  53.0520 165.4562 0001522  66.0833 294.0315 15.06377556107139
STARLINK-2224           
1 48573U 21041W   23116.78458914  .00011294  00000+0  77656-3 0  9994
2 48573  53.0518 155.8468 0001215  85.8241 274.2887 15.06366400107259
STARLINK-2225           
1 48574U 21041X   23116.75418778 -.00001765  00000+0 -99662-4 0  9992
2 48574  53.0525 126.0666 0001542 103.5133 256.6028 15.06377296107671
STARLINK-2227           
1 48575U 21041Y   23116.70353278 -.00000252  00000+0  20017-5 0  9999
2 48575  53.0542 116.5272 0001524  81.2232 278.8929 15.06374178107818
STARLINK-2228           
1 48576U 21041Z   23116.77029588  .00008757  00000+0  60644-3 0  9996
2 48576  53.0523 130.9080 0001660  72.9825 287.1346 15.06374416107610
STARLINK-2231           
1 48577U 21041AA  23116.84355723  .00012035  00000+0  82601-3 0  9999
2 48577  53.0519 155.5827 0001555  71.8873 288.2285 15.06374971107263
STARLINK-2232           
1 48578U 21041AB  23116.80676945  .00009719  00000+0  67106-3 0  9996
2 48578  53.0513 156.2579 0001430  64.9817 295.1321 15.06367672107250
STARLINK-2233           
1 48579U 21041AC  23116.83250068  .00012004  00000+0  82405-3 0  9994
2 48579  53.0515 155.6294 0001405  75.5165 284.5980 15.06370287107266
STARLINK-2234           
1 48580U 21041AD  23116.73250190  .00006628  00000+0  46379-3 0  9996
2 48580  53.0537 131.0771 0001762  80.1791 279.9396 15.06371840107606
STARLINK-2235           
1 48581U 21041AE  23117.15822659  .00021162  00000+0  14350-2 0  9992
2 48581  53.0542 119.1786 0001191  99.5826 260.5298 15.06407705108265
STARLINK-2236           
1 48582U 21041AF  23116.74175415  .00007977  00000+0  55415-3 0  9994
2 48582  53.0520 121.2005 0001463  86.5962 273.5194 15.06377173107745
STARLINK-2237           
1 48583U 21041AG  23116.61411076  .00010314  00000+0  71053-3 0  9992
2 48583  53.0528 166.6127 0001080  98.4286 261.6825 15.06387132107091
STARLINK-2238           
1 48584U 21041AH  23116.85370893  .00013035  00000+0  89307-3 0  9994
2 48584  53.0517 165.5367 0001419  70.7847 289.3295 15.06371380107126
STARLINK-2240           
1 48585U 21041AJ  23117.13012472 -.00000941  00000+0 -44296-4 0  9996
2 48585  53.0546 164.2903 0001351  86.5637 273.5506 15.06413611107560
STARLINK-2241           
1 48586U 21041AK  23116.85738543  .00019314  00000+0  13122-2 0  9993
2 48586  53.0509 165.5214 0001000  52.4353 307.6726 15.06392972107128
STARLINK-2242           
1 48587U 21041AL  23116.86108110  .00015279  00000+0  10432-2 0  9993
2 48587  53.0524 165.5014 0001410  66.1353 293.9783 15.06371582107125
STARLINK-2244           
1 48588U 21041AM  23116.83986939  .00010319  00000+0  71116-3 0  9991
2 48588  53.0522 155.5940 0001397  74.6097 285.5046 15.06372291107266
STARLINK-2245           
1 48589U 21041AN  23116.83620594  .00010734  00000+0  73892-3 0  9998
2 48589  53.0517 155.6155 0001482  81.9586 278.1571 15.06373739107268
STARLINK-2248           
1 48591U 21041AQ  23116.82050101  .00017084  00000+0  11628-2 0  9994
2 48591  53.0526 155.6805 0001640  87.9383 272.1793 15.06407742108162
STARLINK-2249           
1 48592U 21041AR  23116.83064543  .00013095  00000+0  89695-3 0  9999
2 48592  53.0527 165.6641 0001585  77.8145 282.3022 15.06375324107128
STARLINK-2250           
1 48593U 21041AS  23116.83526566  .00006610  00000+0  46283-3 0  9999
2 48593  53.0525 165.6172 0001483  84.7226 275.3932 15.06352813107120
STARLINK-2251           
1 48594U 21041AT  23117.19557755  .00009149  00000+0  63252-3 0  9999
2 48594  53.0529 134.0853 0001435  74.0896 286.0251 15.06385488108053
STARLINK-2252           
1 48595U 21041AU  23116.61780671  .00012417  00000+0  85166-3 0  9991
2 48595  53.0522 166.5929 0001770  80.0114 280.1075 15.06370560108361
STARLINK-2253           
1 48596U 21041AV  23116.83896389  .00011681  00000+0  80226-3 0  9994
2 48596  53.0517 165.6022 0001608  74.9675 285.1492 15.06377204107587
